{
  "type": "FeatureCollection",
  "features": [
    {
      "type": "Feature",
      "properties": {
        "norad_id": 31183,
        "name": "FENGYUN 1C DEB",
        "group": "fengyun-1c-debris",
        "lat": 22.44329268256206,
        "lon": 167.8376145656066,
        "alt_km": 721.54663563534,
        "timestamp": "2025-12-25T09:48:52.570975+00:00",
        "meta_object_name": "FENGYUN 1C DEB",
        "meta_object_id": "1999-025BJM",
        "meta_epoch": "2025-12-24T17:23:09.279744",
        "meta_mean_motion": 14.50543047,
        "meta_eccentricity": 0.00477827,
        "meta_inclination": 99.0376,
        "meta_ra_of_asc_node": 343.3338,
        "meta_arg_of_pericenter": 72.2117,
        "meta_mean_anomaly": 111.8585,
        "meta_ephemeris_type": 0,
        "meta_classification_type": "U",
        "meta_norad_cat_id": 31183,
        "meta_element_set_no": 999,
        "meta_rev_at_epoch": 97656,
        "meta_bstar": 0.001372061,
        "meta_mean_motion_dot": 5.405e-05,
        "meta_mean_motion_ddot": 0,
        "tle_line1": "1 31183U 99025BJM 25358.72441296  .00005405  00000+0  13721-2 0  9998",
        "tle_line2": "2 31183  99.0376 343.3338 0047782  72.2117 111.8585 14.50543047976562"
      },
      "geometry": {
        "type": "Point",
        "coordinates": [
          167.8376145656066,
          22.44329268256206
        ]
      }
    },
    {
      "type": "Feature",
      "properties": {
        "norad_id": 31185,
        "name": "FENGYUN 1C DEB",
        "group": "fengyun-1c-debris",
        "lat": 73.02853757605828,
        "lon": -153.8679426559668,
        "alt_km": 851.1845151752132,
        "timestamp": "2025-12-25T09:48:52.570985+00:00",
        "meta_object_name": "FENGYUN 1C DEB",
        "meta_object_id": "1999-025BJP",
        "meta_epoch": "2025-12-03T06:44:56.905152",
        "meta_mean_motion": 14.03019915,
        "meta_eccentricity": 0.0041359,
        "meta_inclination": 98.8321,
        "meta_ra_of_asc_node": 334.0356,
        "meta_arg_of_pericenter": 132.5488,
        "meta_mean_anomaly": 227.9182,
        "meta_ephemeris_type": 0,
        "meta_classification_type": "U",
        "meta_norad_cat_id": 31185,
        "meta_element_set_no": 999,
        "meta_rev_at_epoch": 62204,
        "meta_bstar": 0.0004459,
        "meta_mean_motion_dot": 6.55e-06,
        "meta_mean_motion_ddot": 0,
        "tle_line1": "1 31185U 99025BJP 25337.28121418  .00000655  00000+0  44590-3 0  9990",
        "tle_line2": "2 31185  98.8321 334.0356 0041359 132.5488 227.9182 14.03019915622046"
      },
      "geometry": {
        "type": "Point",
        "coordinates": [
          -153.8679426559668,
          73.02853757605828
        ]
      }
    },
    {
      "type": "Feature",
      "properties": {
        "norad_id": 31186,
        "name": "FENGYUN 1C DEB",
        "group": "fengyun-1c-debris",
        "lat": 17.40211987712497,
        "lon": -87.82089174901326,
        "alt_km": 831.0280671357013,
        "timestamp": "2025-12-25T09:48:52.570995+00:00",
        "meta_object_name": "FENGYUN 1C DEB",
        "meta_object_id": "1999-025BJQ",
        "meta_epoch": "2025-12-24T12:28:32.496384",
        "meta_mean_motion": 14.12926251,
        "meta_eccentricity": 0.00263714,
        "meta_inclination": 99.1789,
        "meta_ra_of_asc_node": 274.1729,
        "meta_arg_of_pericenter": 31.1223,
        "meta_mean_anomaly": 146.6258,
        "meta_ephemeris_type": 0,
        "meta_classification_type": "U",
        "meta_norad_cat_id": 31186,
        "meta_element_set_no": 999,
        "meta_rev_at_epoch": 96271,
        "meta_bstar": 0.00045802251,
        "meta_mean_motion_dot": 8.09e-06,
        "meta_mean_motion_ddot": 0,
        "tle_line1": "1 31186U 99025BJQ 25358.51982056  .00000809  00000+0  45802-3 0  9991",
        "tle_line2": "2 31186  99.1789 274.1729 0026371  31.1223 146.6258 14.12926251962717"
      },
      "geometry": {
        "type": "Point",
        "coordinates": [
          -87.82089174901326,
          17.40211987712497
        ]
      }
    },
    {
      "type": "Feature",
      "properties": {
        "norad_id": 31187,
        "name": "FENGYUN 1C DEB",
        "group": "fengyun-1c-debris",
        "lat": -55.50033595294969,
        "lon": 30.59889901774926,
        "alt_km": 601.968798501618,
        "timestamp": "2025-12-25T09:48:52.571005+00:00",
        "meta_object_name": "FENGYUN 1C DEB",
        "meta_object_id": "1999-025BJR",
        "meta_epoch": "2025-12-21T10:58:01.324992",
        "meta_mean_motion": 14.59636852,
        "meta_eccentricity": 0.02193421,
        "meta_inclination": 99.2407,
        "meta_ra_of_asc_node": 219.8994,
        "meta_arg_of_pericenter": 197.2347,
        "meta_mean_anomaly": 162.132,
        "meta_ephemeris_type": 0,
        "meta_classification_type": "U",
        "meta_norad_cat_id": 31187,
        "meta_element_set_no": 999,
        "meta_rev_at_epoch": 69227,
        "meta_bstar": 0.0019708223,
        "meta_mean_motion_dot": 0.0001311,
        "meta_mean_motion_ddot": 0,
        "tle_line1": "1 31187U 99025BJR 25355.45695978  .00013110  00000+0  19708-2 0  9990",
        "tle_line2": "2 31187  99.2407 219.8994 0219342 197.2347 162.1320 14.59636852692279"
      },
      "geometry": {
        "type": "Point",
        "coordinates": [
          30.59889901774926,
          -55.50033595294969
        ]
      }
    },
    {
      "type": "Feature",
      "properties": {
        "norad_id": 31188,
        "name": "FENGYUN 1C DEB",
        "group": "fengyun-1c-debris",
        "lat": -21.311996484849384,
        "lon": -116.31213553797936,
        "alt_km": 774.5807971181875,
        "timestamp": "2025-12-25T09:48:52.571015+00:00",
        "meta_object_name": "FENGYUN 1C DEB",
        "meta_object_id": "1999-025BJS",
        "meta_epoch": "2025-12-22T20:28:29.943840",
        "meta_mean_motion": 14.23887484,
        "meta_eccentricity": 0.0060762,
        "meta_inclination": 98.7475,
        "meta_ra_of_asc_node": 64.5893,
        "meta_arg_of_pericenter": 220.3553,
        "meta_mean_anomaly": 207.4513,
        "meta_ephemeris_type": 0,
        "meta_classification_type": "U",
        "meta_norad_cat_id": 31188,
        "meta_element_set_no": 999,
        "meta_rev_at_epoch": 96480,
        "meta_bstar": 0.0015869,
        "meta_mean_motion_dot": 3.662e-05,
        "meta_mean_motion_ddot": 0,
        "tle_line1": "1 31188U 99025BJS 25356.85312435  .00003662  00000+0  15869-2 0  9995",
        "tle_line2": "2 31188  98.7475  64.5893 0060762 220.3553 207.4513 14.23887484964807"
      },
      "geometry": {
        "type": "Point",
        "coordinates": [
          -116.31213553797936,
          -21.311996484849384
        ]
      }
    },
    {
      "type": "Feature",
      "properties": {
        "norad_id": 31190,
        "name": "FENGYUN 1C DEB",
        "group": "fengyun-1c-debris",
        "lat": 22.419542280005412,
        "lon": -164.5749734426177,
        "alt_km": 861.1499249966973,
        "timestamp": "2025-12-25T09:48:52.571024+00:00",
        "meta_object_name": "FENGYUN 1C DEB",
        "meta_object_id": "1999-025BJU",
        "meta_epoch": "2025-12-15T23:14:05.075520",
        "meta_mean_motion": 14.03609027,
        "meta_eccentricity": 0.00676763,
        "meta_inclination": 98.819,
        "meta_ra_of_asc_node": 2.5971,
        "meta_arg_of_pericenter": 250.3103,
        "meta_mean_anomaly": 109.0754,
        "meta_ephemeris_type": 0,
        "meta_classification_type": "U",
        "meta_norad_cat_id": 31190,
        "meta_element_set_no": 999,
        "meta_rev_at_epoch": 95592,
        "meta_bstar": 0.00091857664,
        "meta_mean_motion_dot": 1.428e-05,
        "meta_mean_motion_ddot": 0,
        "tle_line1": "1 31190U 99025BJU 25349.96811430  .00001428  00000+0  91858-3 0  9992",
        "tle_line2": "2 31190  98.8190   2.5971 0067676 250.3103 109.0754 14.03609027955929"
      },
      "geometry": {
        "type": "Point",
        "coordinates": [
          -164.5749734426177,
          22.419542280005412
        ]
      }
    },
    {
      "type": "Feature",
      "properties": {
        "norad_id": 31191,
        "name": "FENGYUN 1C DEB",
        "group": "fengyun-1c-debris",
        "lat": -73.14110688912233,
        "lon": -68.6850521928915,
        "alt_km": 803.294693665548,
        "timestamp": "2025-12-25T09:48:52.571034+00:00",
        "meta_object_name": "FENGYUN 1C DEB",
        "meta_object_id": "1999-025BJV",
        "meta_epoch": "2025-12-24T15:50:13.363296",
        "meta_mean_motion": 14.4081574,
        "meta_eccentricity": 0.00928528,
        "meta_inclination": 98.7828,
        "meta_ra_of_asc_node": 259.8709,
        "meta_arg_of_pericenter": 158.9099,
        "meta_mean_anomaly": 201.5957,
        "meta_ephemeris_type": 0,
        "meta_classification_type": "U",
        "meta_norad_cat_id": 31191,
        "meta_element_set_no": 999,
        "meta_rev_at_epoch": 98184,
        "meta_bstar": 0.00029470173,
        "meta_mean_motion_dot": 9.44e-06,
        "meta_mean_motion_ddot": 0,
        "tle_line1": "1 31191U 99025BJV 25358.65987689  .00000944  00000+0  29470-3 0  9992",
        "tle_line2": "2 31191  98.7828 259.8709 0092852 158.9099 201.5957 14.40815740981849"
      },
      "geometry": {
        "type": "Point",
        "coordinates": [
          -68.6850521928915,
          -73.14110688912233
        ]
      }
    }
  ]
}